[{"OBJECT_NAME":"TRANSPORTER-16 OBJECT AD","OBJECT_ID":"2026-067AD","EPOCH":"2026-04-25T13:20:11.113152","MEAN_MOTION":15.17122897,"ECCENTRICITY":0.00027929,"INCLINATION":97.4511,"RA_OF_ASC_NODE":74.7727,"ARG_OF_PERICENTER":244.4389,"MEAN_ANOMALY":115.6556,"EPHEMERIS_TYPE":0,"CLASSIFICATION_TYPE":"U","NORAD_CAT_ID":68443,"ELEMENT_SET_NO":999,"REV_AT_EPOCH":395,"BSTAR":0.00026302458,"MEAN_MOTION_DOT":5.149e-5,"MEAN_MOTION_DDOT":0},{"OBJECT_NAME":"TRANSPORTER-16 OBJECT AE","OBJECT_ID":"2026-067AE","EPOCH":"2026-04-25T14:27:58.509792","MEAN_MOTION":15.18245693,"ECCENTRICITY":0.00027766,"INCLINATION":97.4535,"RA_OF_ASC_NODE":74.8701,"ARG_OF_PERICENTER":125.79,"MEAN_ANOMALY":234.3593,"EPHEMERIS_TYPE":0,"CLASSIFICATION_TYPE":"U","NORAD_CAT_ID":68444,"ELEMENT_SET_NO":999,"REV_AT_EPOCH":396,"BSTAR":0.00028962106,"MEAN_MOTION_DOT":5.864e-5,"MEAN_MOTION_DDOT":0},{"OBJECT_NAME":"TRANSPORTER-16 OBJECT AF","OBJECT_ID":"2026-067AF","EPOCH":"2026-04-25T13:23:53.224224","MEAN_MOTION":15.16955919,"ECCENTRICITY":0.00031725,"INCLINATION":97.4482,"RA_OF_ASC_NODE":74.7592,"ARG_OF_PERICENTER":256.2295,"MEAN_ANOMALY":103.8586,"EPHEMERIS_TYPE":0,"CLASSIFICATION_TYPE":"U","NORAD_CAT_ID":68445,"ELEMENT_SET_NO":999,"REV_AT_EPOCH":395,"BSTAR":0.00021529528,"MEAN_MOTION_DOT":4.182e-5,"MEAN_MOTION_DDOT":0},{"OBJECT_NAME":"HADES-SA (SPINNYONE)","OBJECT_ID":"2026-067AG","EPOCH":"2026-04-25T13:23:49.382016","MEAN_MOTION":15.1726105,"ECCENTRICITY":0.00046701,"INCLINATION":97.4375,"RA_OF_ASC_NODE":74.7276,"ARG_OF_PERICENTER":252.1972,"MEAN_ANOMALY":107.8752,"EPHEMERIS_TYPE":0,"CLASSIFICATION_TYPE":"U","NORAD_CAT_ID":68446,"ELEMENT_SET_NO":999,"REV_AT_EPOCH":394,"BSTAR":0.00092098386,"MEAN_MOTION_DOT":0.00018303,"MEAN_MOTION_DDOT":0},{"OBJECT_NAME":"TRANSPORTER-16 OBJECT AH","OBJECT_ID":"2026-067AH","EPOCH":"2026-04-25T12:55:32.168064","MEAN_MOTION":15.18179862,"ECCENTRICITY":0.00021671,"INCLINATION":97.4485,"RA_OF_ASC_NODE":74.7868,"ARG_OF_PERICENTER":124.3237,"MEAN_ANOMALY":235.8202,"EPHEMERIS_TYPE":0,"CLASSIFICATION_TYPE":"U","NORAD_CAT_ID":68447,"ELEMENT_SET_NO":999,"REV_AT_EPOCH":395,"BSTAR":0.00036715541,"MEAN_MOTION_DOT":7.439e-5,"MEAN_MOTION_DDOT":0},{"OBJECT_NAME":"HAWK-14A","OBJECT_ID":"2026-067AJ","EPOCH":"2026-04-25T19:27:47.558304","MEAN_MOTION":15.17847475,"ECCENTRICITY":0.0001734,"INCLINATION":97.4571,"RA_OF_ASC_NODE":75.077,"ARG_OF_PERICENTER":243.4312,"MEAN_ANOMALY":116.6744,"EPHEMERIS_TYPE":0,"CLASSIFICATION_TYPE":"U","NORAD_CAT_ID":68448,"ELEMENT_SET_NO":999,"REV_AT_EPOCH":399,"BSTAR":0.00019267877,"MEAN_MOTION_DOT":3.833e-5,"MEAN_MOTION_DDOT":0},{"OBJECT_NAME":"TRANSPORTER-16 OBJECT AK","OBJECT_ID":"2026-067AK","EPOCH":"2026-04-25T13:15:58.338720","MEAN_MOTION":15.17346257,"ECCENTRICITY":0.00019647,"INCLINATION":97.4477,"RA_OF_ASC_NODE":74.7651,"ARG_OF_PERICENTER":245.0486,"MEAN_ANOMALY":115.0544,"EPHEMERIS_TYPE":0,"CLASSIFICATION_TYPE":"U","NORAD_CAT_ID":68449,"ELEMENT_SET_NO":999,"REV_AT_EPOCH":395,"BSTAR":0.00038981118,"MEAN_MOTION_DOT":7.715e-5,"MEAN_MOTION_DDOT":0},{"OBJECT_NAME":"TRANSPORTER-16 OBJECT AL","OBJECT_ID":"2026-067AL","EPOCH":"2026-04-25T14:33:05.374080","MEAN_MOTION":15.18072121,"ECCENTRICITY":0.00021677,"INCLINATION":97.4512,"RA_OF_ASC_NODE":74.8587,"ARG_OF_PERICENTER":142.4708,"MEAN_ANOMALY":217.6678,"EPHEMERIS_TYPE":0,"CLASSIFICATION_TYPE":"U","NORAD_CAT_ID":68450,"ELEMENT_SET_NO":999,"REV_AT_EPOCH":396,"BSTAR":0.00036902663,"MEAN_MOTION_DOT":7.454e-5,"MEAN_MOTION_DDOT":0},{"OBJECT_NAME":"TRANSPORTER-16 OBJECT AM","OBJECT_ID":"2026-067AM","EPOCH":"2026-04-25T12:56:40.627104","MEAN_MOTION":15.1813357,"ECCENTRICITY":0.00019604,"INCLINATION":97.447,"RA_OF_ASC_NODE":74.7804,"ARG_OF_PERICENTER":125.4803,"MEAN_ANOMALY":234.6614,"EPHEMERIS_TYPE":0,"CLASSIFICATION_TYPE":"U","NORAD_CAT_ID":68451,"ELEMENT_SET_NO":999,"REV_AT_EPOCH":395,"BSTAR":0.00037002585,"MEAN_MOTION_DOT":7.488e-5,"MEAN_MOTION_DDOT":0},{"OBJECT_NAME":"TRANSPORTER-16 OBJECT AN","OBJECT_ID":"2026-067AN","EPOCH":"2026-04-25T13:14:38.626080","MEAN_MOTION":15.1740209,"ECCENTRICITY":0.00021004,"INCLINATION":97.4514,"RA_OF_ASC_NODE":74.779,"ARG_OF_PERICENTER":230.9047,"MEAN_ANOMALY":129.2,"EPHEMERIS_TYPE":0,"CLASSIFICATION_TYPE":"U","NORAD_CAT_ID":68452,"ELEMENT_SET_NO":999,"REV_AT_EPOCH":395,"BSTAR":0.00041803809,"MEAN_MOTION_DOT":8.292e-5,"MEAN_MOTION_DDOT":0},{"OBJECT_NAME":"TRANSPORTER-16 OBJECT AP","OBJECT_ID":"2026-067AP","EPOCH":"2026-04-25T12:58:40.024992","MEAN_MOTION":15.18050069,"ECCENTRICITY":0.00022284,"INCLINATION":97.4515,"RA_OF_ASC_NODE":74.7948,"ARG_OF_PERICENTER":149.3085,"MEAN_ANOMALY":210.828,"EPHEMERIS_TYPE":0,"CLASSIFICATION_TYPE":"U","NORAD_CAT_ID":68453,"ELEMENT_SET_NO":999,"REV_AT_EPOCH":395,"BSTAR":0.00036259422,"MEAN_MOTION_DOT":7.318e-5,"MEAN_MOTION_DDOT":0},{"OBJECT_NAME":"TRANSPORTER-16 OBJECT AQ","OBJECT_ID":"2026-067AQ","EPOCH":"2026-04-25T13:21:46.182528","MEAN_MOTION":15.17103941,"ECCENTRICITY":0.00036031,"INCLINATION":97.4539,"RA_OF_ASC_NODE":74.7809,"ARG_OF_PERICENTER":235.4432,"MEAN_ANOMALY":124.6461,"EPHEMERIS_TYPE":0,"CLASSIFICATION_TYPE":"U","NORAD_CAT_ID":68454,"ELEMENT_SET_NO":999,"REV_AT_EPOCH":395,"BSTAR":0.00037754303,"MEAN_MOTION_DOT":7.419e-5,"MEAN_MOTION_DDOT":0},{"OBJECT_NAME":"TRANSPORTER-16 OBJECT AR","OBJECT_ID":"2026-067AR","EPOCH":"2026-04-25T15:00:26.366688","MEAN_MOTION":15.16906878,"ECCENTRICITY":0.00040066,"INCLINATION":97.4538,"RA_OF_ASC_NODE":74.8418,"ARG_OF_PERICENTER":235.6912,"MEAN_ANOMALY":124.3943,"EPHEMERIS_TYPE":0,"CLASSIFICATION_TYPE":"U","NORAD_CAT_ID":68455,"ELEMENT_SET_NO":999,"REV_AT_EPOCH":396,"BSTAR":0.00026353177,"MEAN_MOTION_DOT":5.128e-5,"MEAN_MOTION_DDOT":0},{"OBJECT_NAME":"PARUS-6U1","OBJECT_ID":"2026-067AS","EPOCH":"2026-04-25T13:24:59.878368","MEAN_MOTION":15.16946931,"ECCENTRICITY":0.00039246,"INCLINATION":97.4513,"RA_OF_ASC_NODE":74.7689,"ARG_OF_PERICENTER":236.052,"MEAN_ANOMALY":124.0341,"EPHEMERIS_TYPE":0,"CLASSIFICATION_TYPE":"U","NORAD_CAT_ID":68456,"ELEMENT_SET_NO":999,"REV_AT_EPOCH":395,"BSTAR":0.00031320613,"MEAN_MOTION_DOT":6.115e-5,"MEAN_MOTION_DDOT":0},{"OBJECT_NAME":"TRANSPORTER-16 OBJECT AT","OBJECT_ID":"2026-067AT","EPOCH":"2026-04-25T12:50:01.989600","MEAN_MOTION":15.18456328,"ECCENTRICITY":0.00030268,"INCLINATION":97.4508,"RA_OF_ASC_NODE":74.7996,"ARG_OF_PERICENTER":123.8671,"MEAN_ANOMALY":236.2851,"EPHEMERIS_TYPE":0,"CLASSIFICATION_TYPE":"U","NORAD_CAT_ID":68457,"ELEMENT_SET_NO":999,"REV_AT_EPOCH":395,"BSTAR":0.00047793384,"MEAN_MOTION_DOT":9.785e-5,"MEAN_MOTION_DDOT":0},{"OBJECT_NAME":"SAL-E","OBJECT_ID":"2026-067AU","EPOCH":"2026-04-25T15:00:16.623360","MEAN_MOTION":15.16983134,"ECCENTRICITY":0.00039243,"INCLINATION":97.444,"RA_OF_ASC_NODE":74.8101,"ARG_OF_PERICENTER":249.7677,"MEAN_ANOMALY":110.3135,"EPHEMERIS_TYPE":0,"CLASSIFICATION_TYPE":"U","NORAD_CAT_ID":68458,"ELEMENT_SET_NO":999,"REV_AT_EPOCH":396,"BSTAR":0.00043412335,"MEAN_MOTION_DOT":8.512e-5,"MEAN_MOTION_DDOT":0}]
