TRANSPORTER-16 OBJECT AD
1 68443U 26067AD  26115.55568418  .00005149  00000+0  26302-3 0  9997
2 68443  97.4511  74.7727 0002792 244.4389 115.6556 15.17122897  3951
TRANSPORTER-16 OBJECT AE
1 68444U 26067AE  26115.60276053  .00005864  00000+0  28962-3 0  9993
2 68444  97.4535  74.8701 0002776 125.7900 234.3593 15.18245693  3965
TRANSPORTER-16 OBJECT AF
1 68445U 26067AF  26115.55825491  .00004182  00000+0  21530-3 0  9990
2 68445  97.4482  74.7592 0003172 256.2295 103.8586 15.16955919  3950
HADES-SA (SPINNYONE)    
1 68446U 26067AG  26115.55821044  .00018303  00000+0  92098-3 0  9998
2 68446  97.4375  74.7276 0004670 252.1972 107.8752 15.17261050  3947
TRANSPORTER-16 OBJECT AH
1 68447U 26067AH  26115.53856676  .00007439  00000+0  36716-3 0  9999
2 68447  97.4485  74.7868 0002167 124.3237 235.8202 15.18179862  3953
HAWK-14A                
1 68448U 26067AJ  26115.81096711  .00003833  00000+0  19268-3 0  9994
2 68448  97.4571  75.0770 0001734 243.4312 116.6744 15.17847475  3994
TRANSPORTER-16 OBJECT AK
1 68449U 26067AK  26115.55275855  .00007715  00000+0  38981-3 0  9990
2 68449  97.4477  74.7651 0001964 245.0486 115.0544 15.17346257  3958
TRANSPORTER-16 OBJECT AL
1 68450U 26067AL  26115.60631220  .00007454  00000+0  36903-3 0  9992
2 68450  97.4512  74.8587 0002167 142.4708 217.6678 15.18072121  3967
TRANSPORTER-16 OBJECT AM
1 68451U 26067AM  26115.53935911  .00007488  00000+0  37003-3 0  9998
2 68451  97.4470  74.7804 0001960 125.4803 234.6614 15.18133570  3953
TRANSPORTER-16 OBJECT AN
1 68452U 26067AN  26115.55183595  .00008292  00000+0  41804-3 0  9992
2 68452  97.4514  74.7790 0002100 230.9047 129.2000 15.17402090  3959
TRANSPORTER-16 OBJECT AP
1 68453U 26067AP  26115.54074103  .00007318  00000+0  36259-3 0  9992
2 68453  97.4515  74.7948 0002228 149.3085 210.8280 15.18050069  3955
TRANSPORTER-16 OBJECT AQ
1 68454U 26067AQ  26115.55678452  .00007419  00000+0  37754-3 0  9994
2 68454  97.4539  74.7809 0003603 235.4432 124.6461 15.17103941  3959
TRANSPORTER-16 OBJECT AR
1 68455U 26067AR  26115.62530517  .00005128  00000+0  26353-3 0  9990
2 68455  97.4538  74.8418 0004006 235.6912 124.3943 15.16906878  3961
PARUS-6U1               
1 68456U 26067AS  26115.55902637  .00006115  00000+0  31321-3 0  9997
2 68456  97.4513  74.7689 0003924 236.0520 124.0341 15.16946931  3954
TRANSPORTER-16 OBJECT AT
1 68457U 26067AT  26115.53474525  .00009785  00000+0  47793-3 0  9992
2 68457  97.4508  74.7996 0003026 123.8671 236.2851 15.18456328  3953
SAL-E                   
1 68458U 26067AU  26115.62519240  .00008512  00000+0  43412-3 0  9998
2 68458  97.4440  74.8101 0003924 249.7677 110.3135 15.16983134  3965
